start=new Date('2023-05-23T00:00:00.000Z').valueOf();
sats=[{"CENTER_NAME":"EARTH","MEAN_MOTION":"15.06397485","PERIAPSIS":"546.520","ECCENTRICITY":"0.00010130","GP_ID":"232321912","OBJECT_NAME":"STARLINK-1720","MEAN_MOTION_DDOT":"0.0000000000000","MEAN_ANOMALY":"265.1399","RCS_SIZE":"LARGE","ARG_OF_PERICENTER":"94.9705","SITE":"AFETR","MEAN_ELEMENT_THEORY":"SGP4","CLASSIFICATION_TYPE":"U","OBJECT_TYPE":"PAYLOAD","MEAN_MOTION_DOT":"-0.00000636","COUNTRY_CODE":"US","REF_FRAME":"TEME","EPHEMERIS_TYPE":"0","SEMIMAJOR_AXIS":"6925.356","PERIOD":"95.592","RA_OF_ASC_NODE":"150.6776","OBJECT_ID":"2020-073F","BSTAR":"-0.00002382300000","TIME_SYSTEM":"UTC","EPOCH":"2023-05-22T10:33:04.780224","REV_AT_EPOCH":"14305","FILE":"3914693","DECAY_DATE":null,"APOAPSIS":"547.923","LAUNCH_DATE":"2020-10-18","ELEMENT_SET_NO":"999","TLE_LINE2":"2 46675  53.0534 150.6776 0001013  94.9705 265.1399 15.06397485143057","TLE_LINE1":"1 46675U 20073F   23142.43963866 -.00000636  00000-0 -23823-4 0  9996","INCLINATION":"53.0534","NORAD_CAT_ID":"46675"},{"CENTER_NAME":"EARTH","MEAN_MOTION":"15.06399241","PERIAPSIS":"545.962","ECCENTRICITY":"0.00018100","GP_ID":"232322656","OBJECT_NAME":"STARLINK-1766","MEAN_MOTION_DDOT":"0.0000000000000","MEAN_ANOMALY":"270.4575","RCS_SIZE":"LARGE","ARG_OF_PERICENTER":"89.6621","SITE":"AFETR","MEAN_ELEMENT_THEORY":"SGP4","CLASSIFICATION_TYPE":"U","OBJECT_TYPE":"PAYLOAD","MEAN_MOTION_DOT":"0.00000022","COUNTRY_CODE":"US","REF_FRAME":"TEME","EPHEMERIS_TYPE":"0","SEMIMAJOR_AXIS":"6925.351","PERIOD":"95.592","OBJECT_ID":"2020-073H","RA_OF_ASC_NODE":"151.2868","BSTAR":"0.00002040600000","TIME_SYSTEM":"UTC","EPOCH":"2023-05-22T07:16:41.740896","REV_AT_EPOCH":"14303","FILE":"3914693","DECAY_DATE":null,"APOAPSIS":"548.469","LAUNCH_DATE":"2020-10-18","ELEMENT_SET_NO":"999","TLE_LINE1":"1 46677U 20073H   23142.30326089  .00000022  00000-0  20406-4 0  9995","TLE_LINE2":"2 46677  53.0553 151.2868 0001810  89.6621 270.4575 15.06399241143037","INCLINATION":"53.0553","NORAD_CAT_ID":"46677"},{"ELEMENT_SET_NO":"999","LAUNCH_DATE":"2020-10-18","DECAY_DATE":null,"APOAPSIS":"548.238","INCLINATION":"53.0551","NORAD_CAT_ID":"46679","TLE_LINE2":"2 46679  53.0551 131.5664 0001465  82.1354 277.9801 15.06396915143308","TLE_LINE1":"1 46679U 20073K   23142.24244291  .00000693  00000-0  65406-4 0  9997","BSTAR":"0.00006540600000","TIME_SYSTEM":"UTC","FILE":"3914693","REV_AT_EPOCH":"14330","EPOCH":"2023-05-22T05:49:07.067424","REF_FRAME":"TEME","CLASSIFICATION_TYPE":"U","OBJECT_TYPE":"PAYLOAD","COUNTRY_CODE":"US","MEAN_MOTION_DOT":"0.00000693","MEAN_ELEMENT_THEORY":"SGP4","OBJECT_ID":"2020-073K","RA_OF_ASC_NODE":"131.5664","PERIOD":"95.592","SEMIMAJOR_AXIS":"6925.358","EPHEMERIS_TYPE":"0","ECCENTRICITY":"0.00014650","MEAN_MOTION":"15.06396915","PERIAPSIS":"546.208","CENTER_NAME":"EARTH","SITE":"AFETR","ARG_OF_PERICENTER":"82.1354","MEAN_MOTION_DDOT":"0.0000000000000","OBJECT_NAME":"STARLINK-1773","RCS_SIZE":"LARGE","MEAN_ANOMALY":"277.9801","GP_ID":"232321414"},{"REV_AT_EPOCH":"14289","FILE":"3914964","EPOCH":"2023-05-22T18:36:45.004032","TIME_SYSTEM":"UTC","BSTAR":"-0.00014496000000","TLE_LINE1":"1 46680U 20073L   23142.77552088 -.00002439  00000-0 -14496-3 0  9997","TLE_LINE2":"2 46680  53.0535 164.1672 0001170 100.9520 259.1601 15.06392430142891","NORAD_CAT_ID":"46680","INCLINATION":"53.0535","LAUNCH_DATE":"2020-10-18","ELEMENT_SET_NO":"999","APOAPSIS":"548.047","DECAY_DATE":null,"ARG_OF_PERICENTER":"100.9520","SITE":"AFETR","GP_ID":"232354428","RCS_SIZE":"LARGE","MEAN_ANOMALY":"259.1601","MEAN_MOTION_DDOT":"0.0000000000000","OBJECT_NAME":"STARLINK-1774","ECCENTRICITY":"0.00011700","CENTER_NAME":"EARTH","PERIAPSIS":"546.426","MEAN_MOTION":"15.06392430","PERIOD":"95.593","RA_OF_ASC_NODE":"164.1672","OBJECT_ID":"2020-073L","EPHEMERIS_TYPE":"0","SEMIMAJOR_AXIS":"6925.372","REF_FRAME":"TEME","MEAN_ELEMENT_THEORY":"SGP4","MEAN_MOTION_DOT":"-0.00002439","COUNTRY_CODE":"US","OBJECT_TYPE":"PAYLOAD","CLASSIFICATION_TYPE":"U"},{"ECCENTRICITY":"0.00010580","CENTER_NAME":"EARTH","MEAN_MOTION":"15.06395538","PERIAPSIS":"546.495","ARG_OF_PERICENTER":"97.0265","SITE":"AFETR","GP_ID":"232322413","OBJECT_NAME":"STARLINK-1775","MEAN_MOTION_DDOT":"0.0000000000000","MEAN_ANOMALY":"263.0844","RCS_SIZE":"LARGE","REF_FRAME":"TEME","MEAN_ELEMENT_THEORY":"SGP4","OBJECT_TYPE":"PAYLOAD","CLASSIFICATION_TYPE":"U","COUNTRY_CODE":"US","MEAN_MOTION_DOT":"-0.00001757","PERIOD":"95.592","RA_OF_ASC_NODE":"165.4891","OBJECT_ID":"2020-073M","EPHEMERIS_TYPE":"0","SEMIMAJOR_AXIS":"6925.362","BSTAR":"-0.00009913900000","TIME_SYSTEM":"UTC","REV_AT_EPOCH":"14284","FILE":"3914693","EPOCH":"2023-05-22T11:32:07.521504","LAUNCH_DATE":"2020-10-18","ELEMENT_SET_NO":"999","DECAY_DATE":null,"APOAPSIS":"547.960","TLE_LINE2":"2 46681  53.0522 165.4891 0001058  97.0265 263.0844 15.06395538142842","TLE_LINE1":"1 46681U 20073M   23142.48064261 -.00001757  00000-0 -99139-4 0  9997","INCLINATION":"53.0522","NORAD_CAT_ID":"46681"},{"ECCENTRICITY":"0.00012090","PERIAPSIS":"546.405","MEAN_MOTION":"15.06390683","CENTER_NAME":"EARTH","SITE":"AFETR","ARG_OF_PERICENTER":"94.5279","RCS_SIZE":"LARGE","MEAN_ANOMALY":"265.5848","OBJECT_NAME":"STARLINK-1776","MEAN_MOTION_DDOT":"0.0000000000000","GP_ID":"232355928","REF_FRAME":"TEME","MEAN_MOTION_DOT":"-0.00002165","COUNTRY_CODE":"US","OBJECT_TYPE":"PAYLOAD","CLASSIFICATION_TYPE":"U","MEAN_ELEMENT_THEORY":"SGP4","RA_OF_ASC_NODE":"164.1819","OBJECT_ID":"2020-073N","PERIOD":"95.593","SEMIMAJOR_AXIS":"6925.377","EPHEMERIS_TYPE":"0","TIME_SYSTEM":"UTC","BSTAR":"-0.00012651000000","FILE":"3914964","REV_AT_EPOCH":"14289","EPOCH":"2023-05-22T18:31:26.563872","ELEMENT_SET_NO":"999","LAUNCH_DATE":"2020-10-18","APOAPSIS":"548.079","DECAY_DATE":null,"NORAD_CAT_ID":"46682","INCLINATION":"53.0530","TLE_LINE1":"1 46682U 20073N   23142.77183523 -.00002165  00000-0 -12651-3 0  9990","TLE_LINE2":"2 46682  53.0530 164.1819 0001209  94.5279 265.5848 15.06390683142895"},{"CENTER_NAME":"EARTH","MEAN_MOTION":"15.06400546","PERIAPSIS":"546.172","ECCENTRICITY":"0.00015020","GP_ID":"232320914","MEAN_MOTION_DDOT":"0.0000000000000","OBJECT_NAME":"STARLINK-1780","MEAN_ANOMALY":"268.1147","RCS_SIZE":"LARGE","ARG_OF_PERICENTER":"92.0014","SITE":"AFETR","MEAN_ELEMENT_THEORY":"SGP4","CLASSIFICATION_TYPE":"U","OBJECT_TYPE":"PAYLOAD","COUNTRY_CODE":"US","MEAN_MOTION_DOT":"0.00001215","REF_FRAME":"TEME","EPHEMERIS_TYPE":"0","SEMIMAJOR_AXIS":"6925.347","PERIOD":"95.592","RA_OF_ASC_NODE":"151.3214","OBJECT_ID":"2020-073Q","BSTAR":"0.00010042000000","TIME_SYSTEM":"UTC","EPOCH":"2023-05-22T07:06:05.017824","REV_AT_EPOCH":"14303","FILE":"3914693","DECAY_DATE":null,"APOAPSIS":"548.252","LAUNCH_DATE":"2020-10-18","ELEMENT_SET_NO":"999","TLE_LINE1":"1 46684U 20073Q   23142.29589141  .00001215  00000-0  10042-3 0  9990","TLE_LINE2":"2 46684  53.0543 151.3214 0001502  92.0014 268.1147 15.06400546143032","INCLINATION":"53.0543","NORAD_CAT_ID":"46684"},{"ECCENTRICITY":"0.00010320","PERIAPSIS":"546.531","MEAN_MOTION":"15.06389514","CENTER_NAME":"EARTH","SITE":"AFETR","ARG_OF_PERICENTER":"98.2875","RCS_SIZE":"LARGE","MEAN_ANOMALY":"261.8231","OBJECT_NAME":"STARLINK-1781","MEAN_MOTION_DDOT":"0.0000000000000","GP_ID":"232354928","REF_FRAME":"TEME","MEAN_MOTION_DOT":"-0.00001225","COUNTRY_CODE":"US","CLASSIFICATION_TYPE":"U","OBJECT_TYPE":"PAYLOAD","MEAN_ELEMENT_THEORY":"SGP4","OBJECT_ID":"2020-073R","RA_OF_ASC_NODE":"164.2798","PERIOD":"95.593","SEMIMAJOR_AXIS":"6925.381","EPHEMERIS_TYPE":"0","TIME_SYSTEM":"UTC","BSTAR":"-0.00006340300000","FILE":"3914964","REV_AT_EPOCH":"14288","EPOCH":"2023-05-22T17:58:13.841184","ELEMENT_SET_NO":"999","LAUNCH_DATE":"2020-10-18","APOAPSIS":"547.960","DECAY_DATE":null,"NORAD_CAT_ID":"46685","INCLINATION":"53.0512","TLE_LINE1":"1 46685U 20073R   23142.74877131 -.00001225  00000-0 -63403-4 0  9993","TLE_LINE2":"2 46685  53.0512 164.2798 0001032  98.2875 261.8231 15.06389514142887"},{"ARG_OF_PERICENTER":"96.7433","SITE":"AFETR","GP_ID":"232331384","OBJECT_NAME":"STARLINK-1783","MEAN_MOTION_DDOT":"0.0000000000000","MEAN_ANOMALY":"263.3705","RCS_SIZE":"LARGE","ECCENTRICITY":"0.00013050","CENTER_NAME":"EARTH","MEAN_MOTION":"15.06390525","PERIAPSIS":"546.339","PERIOD":"95.593","OBJECT_ID":"2020-073S","RA_OF_ASC_NODE":"164.0418","EPHEMERIS_TYPE":"0","SEMIMAJOR_AXIS":"6925.378","REF_FRAME":"TEME","MEAN_ELEMENT_THEORY":"SGP4","OBJECT_TYPE":"PAYLOAD","CLASSIFICATION_TYPE":"U","MEAN_MOTION_DOT":"-0.00000436","COUNTRY_CODE":"US","REV_AT_EPOCH":"14337","FILE":"3914787","EPOCH":"2023-05-22T19:01:55.345152","BSTAR":"-0.00001039700000","TIME_SYSTEM":"UTC","TLE_LINE1":"1 46686U 20073S   23142.79300168 -.00000436  00000-0 -10397-4 0  9997","TLE_LINE2":"2 46686  53.0533 164.0418 0001305  96.7433 263.3705 15.06390525143376","INCLINATION":"53.0533","NORAD_CAT_ID":"46686","LAUNCH_DATE":"2020-10-18","ELEMENT_SET_NO":"999","DECAY_DATE":null,"APOAPSIS":"548.146"},{"ELEMENT_SET_NO":"999","LAUNCH_DATE":"2020-10-18","APOAPSIS":"548.154","DECAY_DATE":null,"NORAD_CAT_ID":"46687","INCLINATION":"53.0531","TLE_LINE2":"2 46687  53.0531 131.5064 0001338  94.0234 266.0907 15.06395641143308","TLE_LINE1":"1 46687U 20073T   23142.25350274  .00001739  00000-0  13560-3 0  9991","TIME_SYSTEM":"UTC","BSTAR":"0.00013560000000","FILE":"3914693","REV_AT_EPOCH":"14330","EPOCH":"2023-05-22T06:05:02.636736","REF_FRAME":"TEME","COUNTRY_CODE":"US","MEAN_MOTION_DOT":"0.00001739","OBJECT_TYPE":"PAYLOAD","CLASSIFICATION_TYPE":"U","MEAN_ELEMENT_THEORY":"SGP4","RA_OF_ASC_NODE":"131.5064","OBJECT_ID":"2020-073T","PERIOD":"95.592","SEMIMAJOR_AXIS":"6925.362","EPHEMERIS_TYPE":"0","ECCENTRICITY":"0.00013380","PERIAPSIS":"546.300","MEAN_MOTION":"15.06395641","CENTER_NAME":"EARTH","SITE":"AFETR","ARG_OF_PERICENTER":"94.0234","RCS_SIZE":"LARGE","MEAN_ANOMALY":"266.0907","OBJECT_NAME":"STARLINK-1784","MEAN_MOTION_DDOT":"0.0000000000000","GP_ID":"232322657"}];
